PANDORA
1 67395U 80229J   26046.09726852  .00000000  00000-0  37770-3 0    08
2 67395  97.8004  46.6880 0005422 155.5312 105.6003 14.87795040    07
